OBJECT_NAME,OBJECT_ID,EPOCH,MEAN_MOTION,ECCENTRICITY,INCLINATION,RA_OF_ASC_NODE,ARG_OF_PERICENTER,MEAN_ANOMALY,EPHEMERIS_TYPE,CLASSIFICATION_TYPE,NORAD_CAT_ID,ELEMENT_SET_NO,REV_AT_EPOCH,BSTAR,MEAN_MOTION_DOT,MEAN_MOTION_DDOT
M2 PATHFINDER,2020-037E,2026-07-22T02:11:20.327136,15.04811228,.00122835,97.8143,34.7182,40.4728,319.7410,0,U,45727,999,33074,.16328968E-3,.2244E-4,0
NETSAT-4,2020-068U,2026-07-21T06:28:32.346912,15.44889408,.00055019,97.8612,213.2778,172.2296,187.9038,0,U,46504,999,32103,.29595451E-3,.13816E-3,0
NETSAT-3,2020-068V,2026-07-22T00:21:11.961792,15.43774416,.00046608,97.8664,212.2581,184.8573,175.2630,0,U,46505,999,32105,.43820067E-3,.19756E-3,0
NETSAT-1,2020-068W,2026-07-21T22:41:27.481344,15.35353606,.00029553,97.8765,206.0946,224.6568,135.4436,0,U,46506,999,32063,.37931549E-3,.12945E-3,0
NETSAT-2,2020-068X,2026-07-21T21:44:26.420640,15.47372394,.00031492,97.8624,213.9959,182.0467,178.0769,0,U,46507,999,32110,.4772301E-3,.2435E-3,0
GREENCUBE (IO-117),2022-080E,2026-07-21T06:26:53.364480,6.42583331,.0009377,70.1384,286.3946,282.6707,77.2904,0,U,53109,999,9425,0,-.3E-7,0
SITRO-AIS 5 (KATYS),2023-091L,2026-07-22T06:13:51.487680,15.30172036,.0009941,97.5039,267.5071,346.4977,13.5996,0,U,57176,999,16970,.44394417E-3,.12909E-3,0
SITRO-AIS 6 (CHIRKIN),2023-091AC,2026-07-22T06:07:46.687008,15.26525884,.00104432,97.5047,266.4326,351.2765,8.8291,0,U,57192,999,16963,.40407096E-3,.10501E-3,0
SITRO-AIS 8 (ANOKHIN),2023-091AD,2026-07-22T06:41:47.430816,15.32986636,.00088206,97.5035,269.2620,341.1495,18.9419,0,U,57193,999,16982,.45934031E-3,.14584E-3,0
SITRO-AIS 7 (FARTUSHNIY),2023-091AE,2026-07-22T06:22:54.361344,15.26197243,.0010378,97.5043,266.2494,352.6408,7.4677,0,U,57194,999,16962,.39314857E-3,.10114E-3,0
SITRO-AIS 10 (BURDAEV),2023-091AK,2026-07-22T05:22:23.340864,15.39815223,.00044723,97.5060,274.6322,308.9922,51.0925,0,U,57199,999,17015,.57322431E-3,.22692E-3,0
SITRO-AIS 9 (SHCHUKIN),2023-091AM,2026-07-22T06:16:57.194976,15.39296707,.00046856,97.5057,274.3725,309.4149,50.6681,0,U,57201,999,17014,.54599559E-3,.21243E-3,0
SITRO-AIS 12 (SMIRENNIY),2023-091AQ,2026-07-22T05:53:48.689088,15.39592743,.00043457,97.5069,274.8456,301.0990,58.9829,0,U,57204,999,17016,.53341733E-3,.20952E-3,0
SITRO-AIS 11 (SHEFFER),2023-091AU,2026-07-22T05:58:49.086336,15.40042954,.00042968,97.5068,275.1184,300.3880,59.6941,0,U,57208,999,17018,.53855482E-3,.21471E-3,0
SITRO-AIS 25,2024-039R,2026-07-22T06:44:54.619008,14.93671927,.0143482,95.3885,259.2078,204.5110,154.9251,0,U,59066,999,12996,.24179596E-3,.3096E-4,0
SITRO-AIS 26,2024-039S,2026-07-22T06:53:52.390752,14.93462057,.01438197,95.3886,259.1023,205.1022,154.3167,0,U,59067,999,12995,.2649511E-3,.338E-4,0
SITRO-AIS 27,2024-039T,2026-07-22T07:33:13.245696,14.93892393,.01428319,95.3894,259.4091,203.4591,156.0078,0,U,59068,999,12998,.35771346E-3,.4618E-4,0
SITRO-AIS 28,2024-039U,2026-07-22T06:59:36.119328,14.93920834,.01428286,95.3887,259.4424,203.4345,156.0331,0,U,59071,999,12998,.30290022E-3,.3908E-4,0
GRBBETA,2024-128C,2026-07-22T04:38:52.502208,15.06841666,.00361222,61.9898,93.4263,142.1636,218.2007,0,U,60237,999,11154,.21944702E-3,.3116E-4,0
OOV-CUBE (TUBSAT-30),2024-128F,2026-07-22T06:04:30.835488,15.02894414,.0040191,61.9942,103.2884,141.6330,218.7632,0,U,60240,999,11138,.12811368E-3,.1541E-4,0
ROBUSTA-3A (MEDITERRANEE),2024-128J,2026-07-22T06:06:38.821536,15.12055488,.00370858,61.9863,84.1966,135.3056,225.1039,0,U,60243,999,11172,.4363084E-3,.7446E-4,0
LASARSAT,2024-247Q,2026-07-21T01:29:22.653600,15.48302336,.00082489,44.9738,71.5646,202.6776,157.3752,0,U,62391,999,8856,.50949715E-3,.27288E-3,0
CROCUBE,2024-247T,2026-07-21T15:49:36.031584,15.50548927,.00086465,44.9713,64.9220,212.7388,147.2968,0,U,62394,999,8869,.71514974E-3,.41735E-3,0
FORESAIL-1 PRIME,2025-276DS,2026-07-22T04:15:06.775200,15.18978526,.00023186,97.4184,275.8111,27.6529,332.4829,0,U,66778,999,3571,.18737762E-3,.3851E-4,0
KNACKSAT-2,1998-067XZ,2026-07-22T07:02:18.848544,15.62970519,.00076456,51.6273,117.4838,351.5351,8.5513,0,U,67683,999,2576,.63976601E-3,.59126E-3,0
